start=new Date('2022-08-13T00:00:00.000Z').valueOf();
sats=[{"CLASSIFICATION_TYPE":"U","SITE":"AFETR","ECCENTRICITY":"0.00012210","EPOCH":"2022-08-12T18:12:53.754336","RCS_SIZE":"LARGE","EPHEMERIS_TYPE":"0","NORAD_CAT_ID":"47989","MEAN_MOTION":"15.06408521","COUNTRY_CODE":"US","REV_AT_EPOCH":"7908","RA_OF_ASC_NODE":"344.6995","ELEMENT_SET_NO":"999","TLE_LINE1":"1 47989U 21024N   22224.75895549  .00004382  00000-0  31284-3 0  9998","REF_FRAME":"TEME","LAUNCH_DATE":"2021-03-24","MEAN_MOTION_DOT":"0.00004382","GP_ID":"210105725","TLE_LINE2":"2 47989  53.0567 344.6995 0001221 104.7430 255.3694 15.06408521 79080","CENTER_NAME":"EARTH","SEMIMAJOR_AXIS":"6925.322","PERIOD":"95.592","OBJECT_TYPE":"PAYLOAD","ARG_OF_PERICENTER":"104.7430","MEAN_ELEMENT_THEORY":"SGP4","BSTAR":"0.00031284000000","TIME_SYSTEM":"UTC","FILE":"3535519","OBJECT_NAME":"STARLINK-2305","MEAN_ANOMALY":"255.3694","PERIAPSIS":"546.342","MEAN_MOTION_DDOT":"0.0000000000000","INCLINATION":"53.0567","DECAY_DATE":null,"OBJECT_ID":"2021-024N","APOAPSIS":"548.033"},{"LAUNCH_DATE":"2021-03-24","MEAN_MOTION_DOT":"0.00006352","TLE_LINE2":"2 47990  53.0549 344.5861 0001322  77.6163 282.4974 15.06410067 79075","GP_ID":"210106476","ELEMENT_SET_NO":"999","TLE_LINE1":"1 47990U 21024P   22224.77737937  .00006352  00000-0  44481-3 0  9990","REF_FRAME":"TEME","PERIOD":"95.592","CENTER_NAME":"EARTH","SEMIMAJOR_AXIS":"6925.318","SITE":"AFETR","CLASSIFICATION_TYPE":"U","ECCENTRICITY":"0.00013220","COUNTRY_CODE":"US","REV_AT_EPOCH":"7907","RA_OF_ASC_NODE":"344.5861","RCS_SIZE":"LARGE","EPHEMERIS_TYPE":"0","EPOCH":"2022-08-12T18:39:25.577568","NORAD_CAT_ID":"47990","MEAN_MOTION":"15.06410067","PERIAPSIS":"546.267","MEAN_MOTION_DDOT":"0.0000000000000","DECAY_DATE":null,"OBJECT_ID":"2021-024P","APOAPSIS":"548.098","INCLINATION":"53.0549","BSTAR":"0.00044481000000","TIME_SYSTEM":"UTC","OBJECT_TYPE":"PAYLOAD","MEAN_ELEMENT_THEORY":"SGP4","ARG_OF_PERICENTER":"77.6163","OBJECT_NAME":"STARLINK-2307","MEAN_ANOMALY":"282.4974","FILE":"3535519"},{"ARG_OF_PERICENTER":"102.6594","MEAN_ELEMENT_THEORY":"SGP4","OBJECT_TYPE":"PAYLOAD","TIME_SYSTEM":"UTC","BSTAR":"0.00030880000000","FILE":"3535519","OBJECT_NAME":"STARLINK-2279","MEAN_ANOMALY":"257.4556","PERIAPSIS":"546.199","MEAN_MOTION_DDOT":"0.0000000000000","INCLINATION":"53.0551","OBJECT_ID":"2021-024Q","DECAY_DATE":null,"APOAPSIS":"548.191","SITE":"AFETR","CLASSIFICATION_TYPE":"U","ECCENTRICITY":"0.00014380","RCS_SIZE":"LARGE","EPHEMERIS_TYPE":"0","EPOCH":"2022-08-12T18:56:01.252896","MEAN_MOTION":"15.06406107","NORAD_CAT_ID":"47991","RA_OF_ASC_NODE":"359.5681","REV_AT_EPOCH":"7892","COUNTRY_CODE":"US","TLE_LINE1":"1 47991U 21024Q   22224.78890339  .00004322  00000-0  30880-3 0  9991","ELEMENT_SET_NO":"999","REF_FRAME":"TEME","TLE_LINE2":"2 47991  53.0551 359.5681 0001438 102.6594 257.4556 15.06406107 78921","GP_ID":"210104724","MEAN_MOTION_DOT":"0.00004322","LAUNCH_DATE":"2021-03-24","CENTER_NAME":"EARTH","SEMIMAJOR_AXIS":"6925.330","PERIOD":"95.592"},{"OBJECT_ID":"2021-024R","DECAY_DATE":null,"APOAPSIS":"548.124","INCLINATION":"53.0562","PERIAPSIS":"546.283","MEAN_MOTION_DDOT":"0.0000000000000","OBJECT_NAME":"STARLINK-2229","MEAN_ANOMALY":"274.1946","FILE":"3535519","TIME_SYSTEM":"UTC","BSTAR":"0.00015024000000","ARG_OF_PERICENTER":"85.9195","MEAN_ELEMENT_THEORY":"SGP4","OBJECT_TYPE":"PAYLOAD","PERIOD":"95.592","CENTER_NAME":"EARTH","SEMIMAJOR_AXIS":"6925.338","TLE_LINE2":"2 47992  53.0562 354.8402 0001329  85.9195 274.1946 15.06403346 78945","GP_ID":"210104974","LAUNCH_DATE":"2021-03-24","MEAN_MOTION_DOT":"0.00001957","TLE_LINE1":"1 47992U 21024R   22224.74329490  .00001957  00000-0  15024-3 0  9997","ELEMENT_SET_NO":"999","REF_FRAME":"TEME","REV_AT_EPOCH":"7894","RA_OF_ASC_NODE":"354.8402","COUNTRY_CODE":"US","EPOCH":"2022-08-12T17:50:20.679360","RCS_SIZE":"LARGE","EPHEMERIS_TYPE":"0","MEAN_MOTION":"15.06403346","NORAD_CAT_ID":"47992","CLASSIFICATION_TYPE":"U","SITE":"AFETR","ECCENTRICITY":"0.00013290"},{"MEAN_MOTION_DOT":"0.00001536","LAUNCH_DATE":"2021-03-24","TLE_LINE2":"2 47993  53.0560  34.7315 0001423  94.2155 265.8997 15.06406860 78436","GP_ID":"210106226","REF_FRAME":"TEME","ELEMENT_SET_NO":"999","TLE_LINE1":"1 47993U 21024S   22224.75064896  .00001536  00000-0  12195-3 0  9994","PERIOD":"95.592","SEMIMAJOR_AXIS":"6925.328","CENTER_NAME":"EARTH","ECCENTRICITY":"0.00014230","CLASSIFICATION_TYPE":"U","SITE":"AFETR","COUNTRY_CODE":"US","REV_AT_EPOCH":"7843","RA_OF_ASC_NODE":"34.7315","NORAD_CAT_ID":"47993","MEAN_MOTION":"15.06406860","RCS_SIZE":"LARGE","EPHEMERIS_TYPE":"0","EPOCH":"2022-08-12T18:00:56.070144","MEAN_MOTION_DDOT":"0.0000000000000","PERIAPSIS":"546.207","APOAPSIS":"548.178","DECAY_DATE":null,"OBJECT_ID":"2021-024S","INCLINATION":"53.0560","BSTAR":"0.00012195000000","TIME_SYSTEM":"UTC","OBJECT_TYPE":"PAYLOAD","ARG_OF_PERICENTER":"94.2155","MEAN_ELEMENT_THEORY":"SGP4","MEAN_ANOMALY":"265.8997","OBJECT_NAME":"STARLINK-2273","FILE":"3535519"},{"APOAPSIS":"548.069","OBJECT_ID":"2021-024T","DECAY_DATE":null,"INCLINATION":"53.0535","MEAN_MOTION_DDOT":"0.0000000000000","PERIAPSIS":"546.358","MEAN_ANOMALY":"265.9497","OBJECT_NAME":"STARLINK-2290","FILE":"3535519","TIME_SYSTEM":"UTC","BSTAR":"0.00013242000000","MEAN_ELEMENT_THEORY":"SGP4","ARG_OF_PERICENTER":"94.1633","OBJECT_TYPE":"PAYLOAD","PERIOD":"95.592","SEMIMAJOR_AXIS":"6925.348","CENTER_NAME":"EARTH","TLE_LINE2":"2 47994  53.0535  49.4067 0001235  94.1633 265.9497 15.06400068 78178","GP_ID":"210105976","LAUNCH_DATE":"2021-03-24","MEAN_MOTION_DOT":"0.00001692","REF_FRAME":"TEME","TLE_LINE1":"1 47994U 21024T   22224.82115796  .00001692  00000-0  13242-3 0  9996","ELEMENT_SET_NO":"999","REV_AT_EPOCH":"7817","RA_OF_ASC_NODE":"49.4067","COUNTRY_CODE":"US","MEAN_MOTION":"15.06400068","NORAD_CAT_ID":"47994","EPHEMERIS_TYPE":"0","RCS_SIZE":"LARGE","EPOCH":"2022-08-12T19:42:28.047744","ECCENTRICITY":"0.00012350","CLASSIFICATION_TYPE":"U","SITE":"AFETR"},{"REV_AT_EPOCH":"7865","RA_OF_ASC_NODE":"15.2716","COUNTRY_CODE":"US","EPOCH":"2022-08-12T16:44:03.266592","RCS_SIZE":"LARGE","EPHEMERIS_TYPE":"0","MEAN_MOTION":"15.06418695","NORAD_CAT_ID":"47995","CLASSIFICATION_TYPE":"U","SITE":"AFETR","ECCENTRICITY":"0.00013330","PERIOD":"95.591","CENTER_NAME":"EARTH","SEMIMAJOR_AXIS":"6925.291","GP_ID":"210105225","TLE_LINE2":"2 47995  53.0543  15.2716 0001333  89.0037 271.1104 15.06418695 78652","LAUNCH_DATE":"2021-03-24","MEAN_MOTION_DOT":"0.00011391","TLE_LINE1":"1 47995U 21024U   22224.69726003  .00011391  00000-0  78200-3 0  9993","ELEMENT_SET_NO":"999","REF_FRAME":"TEME","OBJECT_NAME":"STARLINK-2309","MEAN_ANOMALY":"271.1104","FILE":"3535519","TIME_SYSTEM":"UTC","BSTAR":"0.00078200000000","ARG_OF_PERICENTER":"89.0037","MEAN_ELEMENT_THEORY":"SGP4","OBJECT_TYPE":"PAYLOAD","OBJECT_ID":"2021-024U","DECAY_DATE":null,"APOAPSIS":"548.079","INCLINATION":"53.0543","PERIAPSIS":"546.233","MEAN_MOTION_DDOT":"0.0000000000000"},{"INCLINATION":"53.0543","DECAY_DATE":null,"OBJECT_ID":"2021-024V","APOAPSIS":"548.094","PERIAPSIS":"546.185","MEAN_MOTION_DDOT":"0.0000000000000","FILE":"3535519","OBJECT_NAME":"STARLINK-2260","MEAN_ANOMALY":"165.4651","OBJECT_TYPE":"PAYLOAD","ARG_OF_PERICENTER":"77.6772","MEAN_ELEMENT_THEORY":"SGP4","BSTAR":"-0.00113560000000","TIME_SYSTEM":"UTC","CENTER_NAME":"EARTH","SEMIMAJOR_AXIS":"6925.275","PERIOD":"95.591","ELEMENT_SET_NO":"999","TLE_LINE1":"1 47996U 21024V   22224.91668981 -.00017167  00000-0 -11356-2 0  9996","REF_FRAME":"TEME","MEAN_MOTION_DOT":"-0.00017167","LAUNCH_DATE":"2021-03-24","GP_ID":"210105475","TLE_LINE2":"2 47996  53.0543 299.2699 0001378  77.6772 165.4651 15.06424133  1309","RCS_SIZE":"LARGE","EPHEMERIS_TYPE":"0","EPOCH":"2022-08-12T22:00:01.999584","NORAD_CAT_ID":"47996","MEAN_MOTION":"15.06424133","COUNTRY_CODE":"US","RA_OF_ASC_NODE":"299.2699","REV_AT_EPOCH":"130","CLASSIFICATION_TYPE":"U","SITE":"AFETR","ECCENTRICITY":"0.00013780"},{"PERIAPSIS":"546.444","MEAN_MOTION_DDOT":"0.0000000000000","INCLINATION":"53.0534","OBJECT_ID":"2021-024W","DECAY_DATE":null,"APOAPSIS":"547.955","ARG_OF_PERICENTER":"102.7217","MEAN_ELEMENT_THEORY":"SGP4","OBJECT_TYPE":"PAYLOAD","TIME_SYSTEM":"UTC","BSTAR":"0.00043201000000","FILE":"3535519","OBJECT_NAME":"STARLINK-2266","MEAN_ANOMALY":"257.3894","TLE_LINE1":"1 47997U 21024W   22224.80272885  .00006160  00000-0  43201-3 0  9993","ELEMENT_SET_NO":"999","REF_FRAME":"TEME","GP_ID":"210105726","TLE_LINE2":"2 47997  53.0534  49.4792 0001091 102.7217 257.3894 15.06404540 78231","MEAN_MOTION_DOT":"0.00006160","LAUNCH_DATE":"2021-03-24","CENTER_NAME":"EARTH","SEMIMAJOR_AXIS":"6925.335","PERIOD":"95.592","CLASSIFICATION_TYPE":"U","SITE":"AFETR","ECCENTRICITY":"0.00010910","EPHEMERIS_TYPE":"0","RCS_SIZE":"LARGE","EPOCH":"2022-08-12T19:15:55.772640","MEAN_MOTION":"15.06404540","NORAD_CAT_ID":"47997","REV_AT_EPOCH":"7823","RA_OF_ASC_NODE":"49.4792","COUNTRY_CODE":"US"},{"TIME_SYSTEM":"UTC","BSTAR":"0.00027877000000","ARG_OF_PERICENTER":"89.4428","MEAN_ELEMENT_THEORY":"SGP4","OBJECT_TYPE":"PAYLOAD","OBJECT_NAME":"STARLINK-2296","MEAN_ANOMALY":"270.6701","FILE":"3535519","PERIAPSIS":"546.360","MEAN_MOTION_DDOT":"0.0000000000000","OBJECT_ID":"2021-024X","DECAY_DATE":null,"APOAPSIS":"548.056","INCLINATION":"53.0560","SITE":"AFETR","CLASSIFICATION_TYPE":"U","ECCENTRICITY":"0.00012240","REV_AT_EPOCH":"7851","RA_OF_ASC_NODE":"24.9899","COUNTRY_CODE":"US","EPOCH":"2022-08-12T17:51:42.032736","RCS_SIZE":"LARGE","EPHEMERIS_TYPE":"0","MEAN_MOTION":"15.06401811","NORAD_CAT_ID":"47998","TLE_LINE2":"2 47998  53.0560  24.9899 0001224  89.4428 270.6701 15.06401811 78514","GP_ID":"210106477","MEAN_MOTION_DOT":"0.00003873","LAUNCH_DATE":"2021-03-24","TLE_LINE1":"1 47998U 21024X   22224.74423649  .00003873  00000-0  27877-3 0  9992","ELEMENT_SET_NO":"999","REF_FRAME":"TEME","PERIOD":"95.592","CENTER_NAME":"EARTH","SEMIMAJOR_AXIS":"6925.343"}];
